NORAD_CAT_ID,OBJECT_NAME,OBJECT_TYPE,EPOCH,MEAN_MOTION,ECCENTRICITY,INCLINATION,RA_OF_ASC_NODE,ARG_OF_PERICENTER,MEAN_ANOMALY,BSTAR,MEAN_MOTION_DOT,MEAN_MOTION_DDOT,TLE_LINE0,TLE_LINE1,TLE_LINE2,SEMIMAJOR_AXIS,PERIOD,APOGEE,PERIGEE,DECAYED
54004.0,STARLINK-5129,PAYLOAD,2023-01-26 15:54:31,15.08854247,0.000137,53.2163,282.6057,74.3219,285.7924,0.0014233,0.00022445,0.0,0 STARLINK-5129,1 54004U 22125AS  23026.66286048  .00022445  00000-0  14233-2 0  9990,2 54004  53.2163 282.6057 0001370  74.3219 285.7924 15.08854247 17719,6917.837,95.437,540.65,538.754,0.0
54004.0,STARLINK-5129,PAYLOAD,2023-01-27 03:02:12,15.08888559,0.0001493,53.2156,280.5252,64.003,296.1116,0.001644,0.00026008,0.0,0 STARLINK-5129,1 54004U 22125AS  23027.12652846  .00026008  00000-0  16440-2 0  9996,2 54004  53.2156 280.5252 0001493  64.0030 296.1116 15.08888559 17787,6917.732,95.434,540.63,538.564,0.0
54004.0,STARLINK-5129,PAYLOAD,2023-01-27 20:31:26,15.08860255,0.0001371,53.215,277.2534,54.7084,305.4036,0.0013317,0.00020981,0.0,0 STARLINK-5129,1 54004U 22125AS  23027.85516777  .00020981  00000-0  13317-2 0  9992,2 54004  53.2150 277.2534 0001371  54.7084 305.4036 15.08860255 17842,6917.818,95.436,540.632,538.735,0.0
54004.0,STARLINK-5129,PAYLOAD,2023-01-28 01:17:35,15.08855005,0.0001308,53.2151,276.3614,75.6002,284.5135,0.00080065,0.00012483,0.0,0 STARLINK-5129,1 54004U 22125AS  23028.05388561  .00012483  00000-0  80065-3 0  9996,2 54004  53.2151 276.3614 0001308  75.6002 284.5135 15.08855005 17927,6917.835,95.437,540.604,538.795,0.0
54004.0,STARLINK-5129,PAYLOAD,2023-01-28 20:22:13,15.08845235,0.0001301,53.2149,272.7923,73.633,286.4805,0.00016216,2.294e-05,0.0,0 STARLINK-5129,1 54004U 22125AS  23028.84876391  .00002294  00000-0  16216-3 0  9992,2 54004  53.2149 272.7923 0001301  73.6330 286.4805 15.08845235 17998,6917.864,95.437,540.629,538.829,0.0
54004.0,STARLINK-5129,PAYLOAD,2023-01-29 02:43:45,15.08854594,0.0001385,53.2154,271.6034,76.4608,283.6538,0.000242,3.567e-05,0.0,0 STARLINK-5129,1 54004U 22125AS  23029.11371997  .00003567  00000-0  24200-3 0  9991,2 54004  53.2154 271.6034 0001385  76.4608 283.6538 15.08854594 18087,6917.836,95.437,540.659,538.743,0.0
54004.0,STARLINK-5129,PAYLOAD,2023-01-29 20:13:00,15.08840228,0.0001498,53.2151,268.3297,86.9631,273.1532,-7.7364e-06,-4.11e-06,0.0,0 STARLINK-5129,1 54004U 22125AS  23029.84236293 -.00000411  00000-0 -77364-5 0  9998,2 54004  53.2151 268.3297 0001498  86.9631 273.1532 15.08840228 18149,6917.88,95.438,540.781,538.708,0.0
54004.0,STARLINK-5129,PAYLOAD,2023-01-30 00:59:09,15.08842309,0.0001232,53.2152,267.4379,83.4012,276.7121,4.1005e-05,3.65e-06,0.0,0 STARLINK-5129,1 54004U 22125AS  23030.04108232  .00000365  00000-0  41005-4 0  9991,2 54004  53.2152 267.4379 0001232  83.4012 276.7121 15.08842309 18226,6917.873,95.437,540.591,538.886,0.0
54004.0,STARLINK-5129,PAYLOAD,2023-01-30 21:39:10,15.08842632,0.0001219,53.2146,263.574,90.298,269.8152,0.00010076,1.316e-05,0.0,0 STARLINK-5129,1 54004U 22125AS  23030.90220439  .00001316  00000-0  10076-3 0  9990,2 54004  53.2146 263.5740 0001219  90.2980 269.8152 15.08842632 18308,6917.872,95.437,540.581,538.894,0.0
54004.0,STARLINK-5129,PAYLOAD,2023-01-31 00:49:56,15.08843892,0.0001229,53.2146,262.9791,89.6935,270.4198,0.00014084,1.955e-05,0.0,0 STARLINK-5129,1 54004U 22125AS  23031.03468404  .00001955  00000-0  14084-3 0  9993,2 54004  53.2146 262.9791 0001229  89.6935 270.4198 15.08843892 18329,6917.868,95.437,540.584,538.883,0.0
54004.0,STARLINK-5129,PAYLOAD,2023-01-31 18:19:11,15.088427,0.0001224,53.2142,259.7083,88.4132,271.7,0.00017416,2.485e-05,0.0,0 STARLINK-5129,1 54004U 22125AS  23031.76332578  .00002485  00000-0  17416-3 0  9996,2 54004  53.2142 259.7083 0001224  88.4132 271.7000 15.08842700 18484,6917.872,95.437,540.584,538.89,0.0
54004.0,STARLINK-5129,PAYLOAD,2023-01-31 21:29:57,15.08844488,0.0001213,53.2144,259.1136,88.5594,271.5537,0.00017342,2.474e-05,0.0,0 STARLINK-5129,1 54004U 22125AS  23031.89580505  .00002474  00000-0  17342-3 0  9991,2 54004  53.2144 259.1136 0001213  88.5594 271.5537 15.08844488 18455,6917.867,95.437,540.571,538.893,0.0
54004.0,STARLINK-5129,PAYLOAD,2023-02-01 10:13:02,15.08844549,0.0001281,53.214,256.7343,90.0502,270.0637,0.00015305,2.149e-05,0.0,0 STARLINK-5129,1 54004U 22125AS  23032.42572411  .00002149  00000-0  15305-3 0  9994,2 54004  53.2140 256.7343 0001281  90.0502 270.0637 15.08844549 18538,6917.866,95.437,540.618,538.845,0.0
54004.0,STARLINK-5129,PAYLOAD,2023-02-02 00:31:30,15.08845687,0.0001223,53.2141,254.0581,89.1579,270.9553,0.00013252,1.822e-05,0.0,0 STARLINK-5129,1 54004U 22125AS  23033.02188232  .00001822  00000-0  13252-3 0  9991,2 54004  53.2141 254.0581 0001223  89.1579 270.9553 15.08845687 18678,6917.863,95.437,540.574,538.882,0.0
54004.0,STARLINK-5129,PAYLOAD,2023-02-02 14:49:59,15.08838581,0.0001343,53.2135,251.3808,94.9408,265.1737,5.3965e-05,5.71e-06,0.0,0 STARLINK-5129,1 54004U 22125AS  23033.61804549  .00000571  00000-0  53965-4 0  9998,2 54004  53.2135 251.3808 0001343  94.9408 265.1737 15.08838581 18711,6917.885,95.438,540.679,538.821,0.0
54004.0,STARLINK-5129,PAYLOAD,2023-02-03 14:40:46,15.08835423,0.0001211,53.2146,246.9214,96.1122,264.0008,4.1645e-05,3.75e-06,0.0,0 STARLINK-5129,1 54004U 22125AS  23034.61164894  .00000375  00000-0  41645-4 0  9995,2 54004  53.2146 246.9214 0001211  96.1122 264.0008 15.08835423 18862,6917.894,95.438,540.597,538.922,0.0
54004.0,STARLINK-5129,PAYLOAD,2023-02-04 06:34:37,15.08844417,0.0001281,53.2138,243.9479,94.3028,265.8111,-3.0434e-05,-7.72e-06,0.0,0 STARLINK-5129,1 54004U 22125AS  23035.27404528 -.00000772  00000-0 -30434-4 0  9996,2 54004  53.2138 243.9479 0001281  94.3028 265.8111 15.08844417 19010,6917.867,95.437,540.618,538.846,0.0
54004.0,STARLINK-5129,PAYLOAD,2023-02-04 14:31:33,15.08836253,0.0001248,53.2137,242.461,95.3709,264.7425,7.3185e-05,8.77e-06,0.0,0 STARLINK-5129,1 54004U 22125AS  23035.60524954  .00000877  00000-0  73185-4 0  9993,2 54004  53.2137 242.4610 0001248  95.3709 264.7425 15.08836253 19015,6917.892,95.438,540.62,538.893,0.0
54004.0,STARLINK-5129,PAYLOAD,2023-02-04 20:53:05,15.08839529,0.0001078,53.2152,241.2708,96.0518,264.0597,7.9213e-05,9.73e-06,0.0,0 STARLINK-5129,1 54004U 22125AS  23035.87020758  .00000973  00000-0  79213-4 0  9990,2 54004  53.2152 241.2708 0001078  96.0518 264.0597 15.08839529 19050,6917.882,95.438,540.493,539.001,0.0
54004.0,STARLINK-5129,PAYLOAD,2023-02-05 08:00:48,15.08841317,0.0001101,53.215,239.1892,94.7566,265.3552,-3.0117e-05,-7.67e-06,0.0,0 STARLINK-5129,1 54004U 22125AS  23036.33388942 -.00000767  00000-0 -30117-4 0  9997,2 54004  53.2150 239.1892 0001101  94.7566 265.3552 15.08841317 19179,6917.876,95.437,540.503,538.98,0.0
54004.0,STARLINK-5129,PAYLOAD,2023-02-05 12:46:57,15.08833231,0.0001113,53.2153,238.2978,94.8307,265.2813,8.1106e-05,1.003e-05,0.0,0 STARLINK-5129,1 54004U 22125AS  23036.53261394  .00001003  00000-0  81106-4 0  9996,2 54004  53.2153 238.2978 0001113  94.8307 265.2813 15.08833231 19157,6917.901,95.438,540.536,538.996,0.0
54004.0,STARLINK-5129,PAYLOAD,2023-02-05 19:08:30,15.0883709,0.0001077,53.2152,237.1082,95.6962,264.4153,5.0303e-05,5.13e-06,0.0,0 STARLINK-5129,1 54004U 22125AS  23036.79757240  .00000513  00000-0  50303-4 0  9994,2 54004  53.2152 237.1082 0001077  95.6962 264.4153 15.08837090 19194,6917.889,95.438,540.499,539.009,0.0
54004.0,STARLINK-5129,PAYLOAD,2023-02-06 12:37:44,15.08841695,0.0001071,53.2152,233.8369,92.8578,267.2536,0.00011256,1.504e-05,0.0,0 STARLINK-5129,1 54004U 22125AS  23037.52620944  .00001504  00000-0  11256-3 0  9990,2 54004  53.2152 233.8369 0001071  92.8578 267.2536 15.08841695 19306,6917.875,95.437,540.481,538.999,0.0
54004.0,STARLINK-5129,PAYLOAD,2023-02-06 18:59:16,15.08845109,0.0001076,53.2151,232.6475,91.6383,268.4732,0.00013808,1.911e-05,0.0,0 STARLINK-5129,1 54004U 22125AS  23037.79116689  .00001911  00000-0  13808-3 0  9992,2 54004  53.2151 232.6475 0001076  91.6383 268.4732 15.08845109 19390,6917.865,95.437,540.474,538.985,0.0
54004.0,STARLINK-5129,PAYLOAD,2023-02-06 20:34:39,15.08848871,0.0001096,53.2152,232.3501,88.5476,271.5641,0.00014435,2.011e-05,0.0,0 STARLINK-5129,1 54004U 22125AS  23037.85740461  .00002011  00000-0  14435-3 0  9999,2 54004  53.2152 232.3501 0001096  88.5476 271.5641 15.08848871 19357,6917.853,95.437,540.476,538.96,0.0
54004.0,STARLINK-5129,PAYLOAD,2023-02-07 06:06:58,15.08843311,0.0001073,53.2152,230.5663,88.0569,272.0546,0.00010091,1.319e-05,0.0,0 STARLINK-5129,1 54004U 22125AS  23038.25484902  .00001319  00000-0  10091-3 0  9993,2 54004  53.2152 230.5663 0001073  88.0569 272.0546 15.08843311 19410,6917.87,95.437,540.478,538.993,0.0
54004.0,STARLINK-5129,PAYLOAD,2023-02-07 18:50:04,15.08840096,0.000109,53.2148,228.1873,75.4846,284.6267,0.00010277,1.348e-05,0.0,0 STARLINK-5129,1 54004U 22125AS  23038.78477127  .00001348  00000-0  10277-3 0  9990,2 54004  53.2148 228.1873 0001090  75.4846 284.6267 15.08840096 19548,6917.88,95.438,540.499,538.991,0.0
54004.0,STARLINK-5129,PAYLOAD,2023-02-08 12:19:18,15.08839443,0.0001037,53.2142,224.9146,89.5783,270.5328,-5.1694e-05,-1.11e-05,0.0,0 STARLINK-5129,1 54004U 22125AS  23039.51341059 -.00001110  00000-0 -51694-4 0  9994,2 54004  53.2142 224.9146 0001037  89.5783 270.5328 15.08839443 19609,6917.882,95.438,540.464,539.03,0.0
54004.0,STARLINK-5129,PAYLOAD,2023-02-08 18:40:50,15.08847617,0.0001184,53.2148,223.7266,80.8947,279.2179,5.3645e-05,5.66e-06,0.0,0 STARLINK-5129,1 54004U 22125AS  23039.77836668  .00000566  00000-0  53645-4 0  9997,2 54004  53.2148 223.7266 0001184  80.8947 279.2179 15.08847617 19640,6917.857,95.437,540.541,538.903,0.0
54004.0,STARLINK-5129,PAYLOAD,2023-02-09 18:31:38,15.08842205,0.0001153,53.2139,219.2651,84.322,275.7904,0.00013669,1.888e-05,0.0,0 STARLINK-5129,1 54004U 22125AS  23040.77196989  .00001888  00000-0  13669-3 0  9993,2 54004  53.2139 219.2651 0001153  84.3220 275.7904 15.08842205 19844,6917.874,95.437,540.536,538.941,0.0
